[{"OBJECT_NAME":"STARLINK-3111","OBJECT_ID":"2021-104L","EPOCH":"2025-10-31T16:03:13.159584","MEAN_MOTION":15.08843096,"ECCENTRICITY":0.0001391,"INCLINATION":53.2139,"RA_OF_ASC_NODE":88.3164,"ARG_OF_PERICENTER":84.1782,"MEAN_ANOMALY":275.9368,"EPHEMERIS_TYPE":0,"CLASSIFICATION_TYPE":"U","NORAD_CAT_ID":49418,"ELEMENT_SET_NO":999,"REV_AT_EPOCH":21914,"BSTAR":2.1781e-5,"MEAN_MOTION_DOT":5.9e-7,"MEAN_MOTION_DDOT":0},{"OBJECT_NAME":"STARLINK-3120","OBJECT_ID":"2021-104M","EPOCH":"2025-10-31T18:58:05.996352","MEAN_MOTION":15.08857051,"ECCENTRICITY":0.0001261,"INCLINATION":53.2172,"RA_OF_ASC_NODE":87.7695,"ARG_OF_PERICENTER":87.2792,"MEAN_ANOMALY":272.8344,"EPHEMERIS_TYPE":0,"CLASSIFICATION_TYPE":"U","NORAD_CAT_ID":49419,"ELEMENT_SET_NO":999,"REV_AT_EPOCH":21916,"BSTAR":0.0001358,"MEAN_MOTION_DOT":1.875e-5,"MEAN_MOTION_DDOT":0},{"OBJECT_NAME":"STARLINK-3110","OBJECT_ID":"2021-104N","EPOCH":"2025-10-31T19:08:42.104256","MEAN_MOTION":15.08836571,"ECCENTRICITY":0.0001166,"INCLINATION":53.2159,"RA_OF_ASC_NODE":87.7386,"ARG_OF_PERICENTER":85.0647,"MEAN_ANOMALY":275.0478,"EPHEMERIS_TYPE":0,"CLASSIFICATION_TYPE":"U","NORAD_CAT_ID":49420,"ELEMENT_SET_NO":999,"REV_AT_EPOCH":21916,"BSTAR":2.8542e-5,"MEAN_MOTION_DOT":1.66e-6,"MEAN_MOTION_DDOT":0},{"OBJECT_NAME":"STARLINK-3112","OBJECT_ID":"2021-104P","EPOCH":"2025-10-31T18:21:00.383328","MEAN_MOTION":15.08814715,"ECCENTRICITY":0.000115,"INCLINATION":53.216,"RA_OF_ASC_NODE":87.693,"ARG_OF_PERICENTER":87.3535,"MEAN_ANOMALY":272.7589,"EPHEMERIS_TYPE":0,"CLASSIFICATION_TYPE":"U","NORAD_CAT_ID":49421,"ELEMENT_SET_NO":999,"REV_AT_EPOCH":21916,"BSTAR":-0.00011584,"MEAN_MOTION_DOT":-2.13e-5,"MEAN_MOTION_DDOT":0},{"OBJECT_NAME":"STARLINK-3161","OBJECT_ID":"2021-104Q","EPOCH":"2025-10-31T18:11:50.284032","MEAN_MOTION":15.08837141,"ECCENTRICITY":0.0001263,"INCLINATION":53.2164,"RA_OF_ASC_NODE":88.2326,"ARG_OF_PERICENTER":88.895,"MEAN_ANOMALY":271.2187,"EPHEMERIS_TYPE":0,"CLASSIFICATION_TYPE":"U","NORAD_CAT_ID":49422,"ELEMENT_SET_NO":999,"REV_AT_EPOCH":21915,"BSTAR":3.6657e-5,"MEAN_MOTION_DOT":2.96e-6,"MEAN_MOTION_DDOT":0},{"OBJECT_NAME":"STARLINK-3149","OBJECT_ID":"2021-104R","EPOCH":"2025-10-31T19:03:26.123040","MEAN_MOTION":15.08837677,"ECCENTRICITY":0.00014,"INCLINATION":53.2164,"RA_OF_ASC_NODE":87.9466,"ARG_OF_PERICENTER":87.6699,"MEAN_ANOMALY":272.4454,"EPHEMERIS_TYPE":0,"CLASSIFICATION_TYPE":"U","NORAD_CAT_ID":49423,"ELEMENT_SET_NO":999,"REV_AT_EPOCH":21916,"BSTAR":3.7643e-5,"MEAN_MOTION_DOT":3.11e-6,"MEAN_MOTION_DDOT":0},{"OBJECT_NAME":"STARLINK-3135","OBJECT_ID":"2021-104S","EPOCH":"2025-10-31T18:52:49.774944","MEAN_MOTION":15.08826295,"ECCENTRICITY":0.0001497,"INCLINATION":53.2175,"RA_OF_ASC_NODE":87.7861,"ARG_OF_PERICENTER":81.2175,"MEAN_ANOMALY":278.8987,"EPHEMERIS_TYPE":0,"CLASSIFICATION_TYPE":"U","NORAD_CAT_ID":49424,"ELEMENT_SET_NO":999,"REV_AT_EPOCH":21916,"BSTAR":-3.1498e-6,"MEAN_MOTION_DOT":-3.38e-6,"MEAN_MOTION_DDOT":0},{"OBJECT_NAME":"STARLINK-3139","OBJECT_ID":"2021-104T","EPOCH":"2025-10-31T18:32:58.974720","MEAN_MOTION":15.08836422,"ECCENTRICITY":0.000121,"INCLINATION":53.2163,"RA_OF_ASC_NODE":87.8569,"ARG_OF_PERICENTER":87.8519,"MEAN_ANOMALY":272.2611,"EPHEMERIS_TYPE":0,"CLASSIFICATION_TYPE":"U","NORAD_CAT_ID":49425,"ELEMENT_SET_NO":999,"REV_AT_EPOCH":21917,"BSTAR":1.3043e-5,"MEAN_MOTION_DOT":-8.0e-7,"MEAN_MOTION_DDOT":0},{"OBJECT_NAME":"STARLINK-3114","OBJECT_ID":"2021-104U","EPOCH":"2025-10-31T18:42:12.540384","MEAN_MOTION":15.08834961,"ECCENTRICITY":0.0001364,"INCLINATION":53.2175,"RA_OF_ASC_NODE":87.8187,"ARG_OF_PERICENTER":87.7073,"MEAN_ANOMALY":272.4075,"EPHEMERIS_TYPE":0,"CLASSIFICATION_TYPE":"U","NORAD_CAT_ID":49426,"ELEMENT_SET_NO":999,"REV_AT_EPOCH":21916,"BSTAR":2.9529e-5,"MEAN_MOTION_DOT":1.82e-6,"MEAN_MOTION_DDOT":0},{"OBJECT_NAME":"STARLINK-3131","OBJECT_ID":"2021-104V","EPOCH":"2025-10-31T18:27:41.112576","MEAN_MOTION":15.08837666,"ECCENTRICITY":0.0001312,"INCLINATION":53.2166,"RA_OF_ASC_NODE":87.8758,"ARG_OF_PERICENTER":87.1207,"MEAN_ANOMALY":272.9935,"EPHEMERIS_TYPE":0,"CLASSIFICATION_TYPE":"U","NORAD_CAT_ID":49427,"ELEMENT_SET_NO":999,"REV_AT_EPOCH":21917,"BSTAR":4.1509e-6,"MEAN_MOTION_DOT":-2.22e-6,"MEAN_MOTION_DDOT":0},{"OBJECT_NAME":"STARLINK-3121","OBJECT_ID":"2021-104W","EPOCH":"2025-10-31T17:59:47.300064","MEAN_MOTION":15.08839662,"ECCENTRICITY":0.0001288,"INCLINATION":53.2164,"RA_OF_ASC_NODE":87.8651,"ARG_OF_PERICENTER":89.6453,"MEAN_ANOMALY":270.4687,"EPHEMERIS_TYPE":0,"CLASSIFICATION_TYPE":"U","NORAD_CAT_ID":49428,"ELEMENT_SET_NO":999,"REV_AT_EPOCH":21917,"BSTAR":2.2894e-5,"MEAN_MOTION_DOT":7.6e-7,"MEAN_MOTION_DDOT":0},{"OBJECT_NAME":"STARLINK-3138","OBJECT_ID":"2021-104Y","EPOCH":"2025-10-31T18:59:31.483104","MEAN_MOTION":15.08856301,"ECCENTRICITY":0.0001359,"INCLINATION":53.2166,"RA_OF_ASC_NODE":88.0444,"ARG_OF_PERICENTER":123.4004,"MEAN_ANOMALY":236.7118,"EPHEMERIS_TYPE":0,"CLASSIFICATION_TYPE":"U","NORAD_CAT_ID":49430,"ELEMENT_SET_NO":999,"REV_AT_EPOCH":21917,"BSTAR":4.168e-5,"MEAN_MOTION_DOT":3.76e-6,"MEAN_MOTION_DDOT":0},{"OBJECT_NAME":"STARLINK-3153","OBJECT_ID":"2021-104Z","EPOCH":"2025-10-31T19:24:37.685664","MEAN_MOTION":15.08835125,"ECCENTRICITY":0.0001361,"INCLINATION":53.2161,"RA_OF_ASC_NODE":87.8704,"ARG_OF_PERICENTER":94.6848,"MEAN_ANOMALY":265.43,"EPHEMERIS_TYPE":0,"CLASSIFICATION_TYPE":"U","NORAD_CAT_ID":49431,"ELEMENT_SET_NO":999,"REV_AT_EPOCH":21917,"BSTAR":-9.2549e-6,"MEAN_MOTION_DOT":-4.35e-6,"MEAN_MOTION_DDOT":0},{"OBJECT_NAME":"STARLINK-3158","OBJECT_ID":"2021-104AA","EPOCH":"2025-10-31T17:30:42.632640","MEAN_MOTION":15.08838761,"ECCENTRICITY":0.0001313,"INCLINATION":53.2169,"RA_OF_ASC_NODE":78.0426,"ARG_OF_PERICENTER":88.7002,"MEAN_ANOMALY":271.4141,"EPHEMERIS_TYPE":0,"CLASSIFICATION_TYPE":"U","NORAD_CAT_ID":49432,"ELEMENT_SET_NO":999,"REV_AT_EPOCH":21930,"BSTAR":2.267e-5,"MEAN_MOTION_DOT":7.3e-7,"MEAN_MOTION_DDOT":0},{"OBJECT_NAME":"STARLINK-3079","OBJECT_ID":"2021-104AB","EPOCH":"2025-10-31T15:55:16.796640","MEAN_MOTION":15.08840185,"ECCENTRICITY":0.0001359,"INCLINATION":53.2172,"RA_OF_ASC_NODE":68.3411,"ARG_OF_PERICENTER":93.6784,"MEAN_ANOMALY":266.4363,"EPHEMERIS_TYPE":0,"CLASSIFICATION_TYPE":"U","NORAD_CAT_ID":49433,"ELEMENT_SET_NO":999,"REV_AT_EPOCH":22052,"BSTAR":2.9056e-5,"MEAN_MOTION_DOT":1.75e-6,"MEAN_MOTION_DDOT":0},{"OBJECT_NAME":"STARLINK-3134","OBJECT_ID":"2021-104AC","EPOCH":"2025-10-31T18:36:55.786752","MEAN_MOTION":15.08838976,"ECCENTRICITY":0.0001308,"INCLINATION":53.2171,"RA_OF_ASC_NODE":87.9905,"ARG_OF_PERICENTER":92.1396,"MEAN_ANOMALY":267.9746,"EPHEMERIS_TYPE":0,"CLASSIFICATION_TYPE":"U","NORAD_CAT_ID":49434,"ELEMENT_SET_NO":999,"REV_AT_EPOCH":22025,"BSTAR":5.0001e-5,"MEAN_MOTION_DOT":5.08e-6,"MEAN_MOTION_DDOT":0},{"OBJECT_NAME":"STARLINK-3117","OBJECT_ID":"2021-104AD","EPOCH":"2025-10-31T17:37:20.114976","MEAN_MOTION":15.08840408,"ECCENTRICITY":0.0001533,"INCLINATION":53.2186,"RA_OF_ASC_NODE":68.0198,"ARG_OF_PERICENTER":77.9288,"MEAN_ANOMALY":282.1876,"EPHEMERIS_TYPE":0,"CLASSIFICATION_TYPE":"U","NORAD_CAT_ID":49435,"ELEMENT_SET_NO":999,"REV_AT_EPOCH":21944,"BSTAR":9.4969e-5,"MEAN_MOTION_DOT":1.224e-5,"MEAN_MOTION_DDOT":0},{"OBJECT_NAME":"STARLINK-3049","OBJECT_ID":"2021-104AE","EPOCH":"2025-10-31T17:35:57.735168","MEAN_MOTION":15.08836479,"ECCENTRICITY":0.0001665,"INCLINATION":53.2189,"RA_OF_ASC_NODE":68.024,"ARG_OF_PERICENTER":72.3714,"MEAN_ANOMALY":287.7459,"EPHEMERIS_TYPE":0,"CLASSIFICATION_TYPE":"U","NORAD_CAT_ID":49436,"ELEMENT_SET_NO":999,"REV_AT_EPOCH":21944,"BSTAR":3.6959e-5,"MEAN_MOTION_DOT":3.0e-6,"MEAN_MOTION_DDOT":0},{"OBJECT_NAME":"STARLINK-3130","OBJECT_ID":"2021-104AF","EPOCH":"2025-10-31T17:25:18.156576","MEAN_MOTION":15.08872731,"ECCENTRICITY":0.0001882,"INCLINATION":53.2183,"RA_OF_ASC_NODE":68.0588,"ARG_OF_PERICENTER":39.4659,"MEAN_ANOMALY":320.647,"EPHEMERIS_TYPE":0,"CLASSIFICATION_TYPE":"U","NORAD_CAT_ID":49437,"ELEMENT_SET_NO":999,"REV_AT_EPOCH":21944,"BSTAR":0.00034211,"MEAN_MOTION_DOT":5.166e-5,"MEAN_MOTION_DDOT":0},{"OBJECT_NAME":"STARLINK-3044","OBJECT_ID":"2021-104AG","EPOCH":"2025-10-31T17:10:49.774368","MEAN_MOTION":15.08831489,"ECCENTRICITY":0.0001144,"INCLINATION":53.2169,"RA_OF_ASC_NODE":68.0383,"ARG_OF_PERICENTER":90.2357,"MEAN_ANOMALY":269.8766,"EPHEMERIS_TYPE":0,"CLASSIFICATION_TYPE":"U","NORAD_CAT_ID":49438,"ELEMENT_SET_NO":999,"REV_AT_EPOCH":21944,"BSTAR":0.00013995,"MEAN_MOTION_DOT":1.94e-5,"MEAN_MOTION_DDOT":0},{"OBJECT_NAME":"STARLINK-3105","OBJECT_ID":"2021-104AJ","EPOCH":"2025-10-31T17:14:46.040352","MEAN_MOTION":15.08845911,"ECCENTRICITY":0.0001263,"INCLINATION":53.2176,"RA_OF_ASC_NODE":68.0934,"ARG_OF_PERICENTER":90.7989,"MEAN_ANOMALY":269.3148,"EPHEMERIS_TYPE":0,"CLASSIFICATION_TYPE":"U","NORAD_CAT_ID":49440,"ELEMENT_SET_NO":999,"REV_AT_EPOCH":21944,"BSTAR":8.3385e-6,"MEAN_MOTION_DOT":-1.55e-6,"MEAN_MOTION_DDOT":0},{"OBJECT_NAME":"STARLINK-3128","OBJECT_ID":"2021-104AK","EPOCH":"2025-10-31T16:48:16.121376","MEAN_MOTION":15.0884532,"ECCENTRICITY":0.00013,"INCLINATION":53.2165,"RA_OF_ASC_NODE":68.1756,"ARG_OF_PERICENTER":87.4187,"MEAN_ANOMALY":272.6954,"EPHEMERIS_TYPE":0,"CLASSIFICATION_TYPE":"U","NORAD_CAT_ID":49441,"ELEMENT_SET_NO":999,"REV_AT_EPOCH":21944,"BSTAR":-2.4349e-7,"MEAN_MOTION_DOT":-2.92e-6,"MEAN_MOTION_DDOT":0},{"OBJECT_NAME":"STARLINK-3098","OBJECT_ID":"2021-104AL","EPOCH":"2025-10-31T17:09:28.597248","MEAN_MOTION":15.08841691,"ECCENTRICITY":0.0001083,"INCLINATION":53.216,"RA_OF_ASC_NODE":68.1096,"ARG_OF_PERICENTER":115.3474,"MEAN_ANOMALY":244.763,"EPHEMERIS_TYPE":0,"CLASSIFICATION_TYPE":"U","NORAD_CAT_ID":49442,"ELEMENT_SET_NO":999,"REV_AT_EPOCH":21944,"BSTAR":4.4977e-6,"MEAN_MOTION_DOT":-2.16e-6,"MEAN_MOTION_DDOT":0},{"OBJECT_NAME":"STARLINK-3136","OBJECT_ID":"2021-104AM","EPOCH":"2025-10-31T18:18:21.466944","MEAN_MOTION":15.08833693,"ECCENTRICITY":0.0001545,"INCLINATION":53.2183,"RA_OF_ASC_NODE":67.8937,"ARG_OF_PERICENTER":90.8648,"MEAN_ANOMALY":269.2521,"EPHEMERIS_TYPE":0,"CLASSIFICATION_TYPE":"U","NORAD_CAT_ID":49443,"ELEMENT_SET_NO":999,"REV_AT_EPOCH":21945,"BSTAR":-2.7379e-5,"MEAN_MOTION_DOT":-7.24e-6,"MEAN_MOTION_DDOT":0}]
